{
  "norad_id": 67866,
  "name": "STARLINK-36780",
  "history": [
    {
      "epoch": "2026-04-11T17:30:59.072832Z",
      "apogee_km": 476.2924682510211,
      "perigee_km": 474.10899484974925,
      "latitude_deg": -4.483575942231518e-06,
      "longitude_deg": -51.87589188841726,
      "height_km": 476.27006188970665,
      "semi_major_axis_km": 6853.337731550385,
      "eccentricity": 0.0001593,
      "inclination_deg": 53.1609,
      "raan_deg": 50.8154,
      "arg_perigee_deg": 99.0423,
      "mean_anomaly_deg": 261.0758,
      "mean_motion_rev_day": 15.30204802
    },
    {
      "epoch": "2026-04-13T05:34:12.428256Z",
      "apogee_km": 476.1428635691118,
      "perigee_km": 474.22365976303536,
      "latitude_deg": 6.677787765198565e-05,
      "longitude_deg": 118.86243955778113,
      "height_km": 476.0649789414185,
      "semi_major_axis_km": 6853.320261666074,
      "eccentricity": 0.00014002,
      "inclination_deg": 53.1617,
      "raan_deg": 43.84,
      "arg_perigee_deg": 89.0234,
      "mean_anomaly_deg": 271.0928,
      "mean_motion_rev_day": 15.30210653
    },
    {
      "epoch": "2026-04-14T19:11:29.155200Z",
      "apogee_km": 476.2035510316982,
      "perigee_km": 474.1955234262896,
      "latitude_deg": -1.9985924877201032e-05,
      "longitude_deg": -94.28327144724398,
      "height_km": 476.0316510857516,
      "semi_major_axis_km": 6853.336537228994,
      "eccentricity": 0.0001465,
      "inclination_deg": 53.1622,
      "raan_deg": 36.5591,
      "arg_perigee_deg": 86.2344,
      "mean_anomaly_deg": 273.8824,
      "mean_motion_rev_day": 15.30205202
    },
    {
      "epoch": "2026-04-15T12:26:04.339392Z",
      "apogee_km": 476.2715928801081,
      "perigee_km": 474.15473008222943,
      "latitude_deg": 6.741983592441629e-05,
      "longitude_deg": 3.0224449800697175,
      "height_km": 476.1958685256145,
      "semi_major_axis_km": 6853.3501614811685,
      "eccentricity": 0.00015444,
      "inclination_deg": 53.1611,
      "raan_deg": 33.2195,
      "arg_perigee_deg": 94.6008,
      "mean_anomaly_deg": 265.517,
      "mean_motion_rev_day": 15.30200639
    },
    {
      "epoch": "2026-04-16T11:56:52.160352Z",
      "apogee_km": 476.08831342416033,
      "perigee_km": 474.3215218777905,
      "latitude_deg": -2.0068077543000987e-05,
      "longitude_deg": 4.806971463740204,
      "height_km": 476.05521420892563,
      "semi_major_axis_km": 6853.341917650975,
      "eccentricity": 0.0001289,
      "inclination_deg": 53.1639,
      "raan_deg": 28.669,
      "arg_perigee_deg": 86.8736,
      "mean_anomaly_deg": 273.2412,
      "mean_motion_rev_day": 15.302034
    },
    {
      "epoch": "2026-04-17T11:27:40.054752Z",
      "apogee_km": 475.93400809371633,
      "perigee_km": 474.4889110375325,
      "latitude_deg": -3.848495605889975e-05,
      "longitude_deg": 6.5923421617941,
      "height_km": 476.1368485455184,
      "semi_major_axis_km": 6853.348459565624,
      "eccentricity": 0.00010543,
      "inclination_deg": 53.1615,
      "raan_deg": 24.1196,
      "arg_perigee_deg": 92.1299,
      "mean_anomaly_deg": 267.9822,
      "mean_motion_rev_day": 15.30201209
    },
    {
      "epoch": "2026-04-18T10:58:27.877440Z",
      "apogee_km": 475.83379259286994,
      "perigee_km": 474.50370301333714,
      "latitude_deg": -5.7988925101374345e-05,
      "longitude_deg": 8.376310768753605,
      "height_km": 476.1113806912996,
      "semi_major_axis_km": 6853.305747803103,
      "eccentricity": 9.704e-05,
      "inclination_deg": 53.1619,
      "raan_deg": 19.5685,
      "arg_perigee_deg": 93.7877,
      "mean_anomaly_deg": 266.3234,
      "mean_motion_rev_day": 15.30215514
    },
    {
      "epoch": "2026-04-19T10:29:15.836640Z",
      "apogee_km": 476.17005420391706,
      "perigee_km": 474.2682478720035,
      "latitude_deg": -5.621077981100292e-05,
      "longitude_deg": 10.160423713444365,
      "height_km": 476.12435722070376,
      "semi_major_axis_km": 6853.3561510379595,
      "eccentricity": 0.00013875,
      "inclination_deg": 53.1589,
      "raan_deg": 15.0181,
      "arg_perigee_deg": 90.4461,
      "mean_anomaly_deg": 269.6698,
      "mean_motion_rev_day": 15.30198633
    },
    {
      "epoch": "2026-04-20T10:00:04.234752Z",
      "apogee_km": 476.08123912909014,
      "perigee_km": 474.3913343440454,
      "latitude_deg": 7.024919938722623e-06,
      "longitude_deg": 11.94534757050115,
      "height_km": 476.2397951059631,
      "semi_major_axis_km": 6853.373286736567,
      "eccentricity": 0.00012329,
      "inclination_deg": 53.1594,
      "raan_deg": 10.4703,
      "arg_perigee_deg": 97.1685,
      "mean_anomaly_deg": 262.9456,
      "mean_motion_rev_day": 15.30192894
    },
    {
      "epoch": "2026-04-21T20:29:14.226432Z",
      "apogee_km": 475.91187440835984,
      "perigee_km": 474.53571956032556,
      "latitude_deg": 2.445308706657996e-05,
      "longitude_deg": -153.43646913171432,
      "height_km": 476.1448361931733,
      "semi_major_axis_km": 6853.360796984342,
      "eccentricity": 0.0001004,
      "inclination_deg": 53.1588,
      "raan_deg": 3.7964,
      "arg_perigee_deg": 91.8937,
      "mean_anomaly_deg": 268.2179,
      "mean_motion_rev_day": 15.30197077
    },
    {
      "epoch": "2026-04-21T22:03:17.356032Z",
      "apogee_km": 475.90095601302346,
      "perigee_km": 474.50150434642,
      "latitude_deg": 2.2466712250218346e-05,
      "longitude_deg": -177.32138719844468,
      "height_km": 475.7921678638846,
      "semi_major_axis_km": 6853.338230179721,
      "eccentricity": 0.0001021,
      "inclination_deg": 53.1583,
      "raan_deg": 3.4889,
      "arg_perigee_deg": 63.9367,
      "mean_anomaly_deg": 296.1739,
      "mean_motion_rev_day": 15.30204635
    },
    {
      "epoch": "2026-04-23T02:16:15.196512Z",
      "apogee_km": 475.9723220601454,
      "perigee_km": 474.4347065823531,
      "latitude_deg": 6.533054543516187e-05,
      "longitude_deg": 112.82084723915418,
      "height_km": 476.1290782719103,
      "semi_major_axis_km": 6853.340514321249,
      "eccentricity": 0.00011218,
      "inclination_deg": 53.1594,
      "raan_deg": 358.0309,
      "arg_perigee_deg": 92.0394,
      "mean_anomaly_deg": 268.0736,
      "mean_motion_rev_day": 15.3020387
    },
    {
      "epoch": "2026-04-24T20:35:41.340768Z",
      "apogee_km": 475.89196499081027,
      "perigee_km": 474.484292009417,
      "latitude_deg": -3.983794705931331e-06,
      "longitude_deg": -171.9689231851565,
      "height_km": 475.947296084592,
      "semi_major_axis_km": 6853.325128500113,
      "eccentricity": 0.0001027,
      "inclination_deg": 53.1603,
      "raan_deg": 349.8383,
      "arg_perigee_deg": 78.5847,
      "mean_anomaly_deg": 281.5269,
      "mean_motion_rev_day": 15.30209023
    },
    {
      "epoch": "2026-04-25T20:06:28.785024Z",
      "apogee_km": 476.4848596105685,
      "perigee_km": 473.82852297582394,
      "latitude_deg": -4.330882488772226e-05,
      "longitude_deg": -170.18928900610794,
      "height_km": 476.9907685210731,
      "semi_major_axis_km": 6853.293691293196,
      "eccentricity": 0.0001938,
      "inclination_deg": 53.1609,
      "raan_deg": 345.2813,
      "arg_perigee_deg": 134.811,
      "mean_anomaly_deg": 225.3048,
      "mean_motion_rev_day": 15.30219552
    },
    {
      "epoch": "2026-04-26T21:11:20.433696Z",
      "apogee_km": 476.4261714140175,
      "perigee_km": 473.9650026153686,
      "latitude_deg": -3.415310393955499e-05,
      "longitude_deg": 167.7158748720919,
      "height_km": 476.4150622688834,
      "semi_major_axis_km": 6853.332587014693,
      "eccentricity": 0.00017956,
      "inclination_deg": 53.1614,
      "raan_deg": 340.4317,
      "arg_perigee_deg": 105.1639,
      "mean_anomaly_deg": 254.956,
      "mean_motion_rev_day": 15.30206525
    },
    {
      "epoch": "2026-04-27T20:42:08.557056Z",
      "apogee_km": 476.3787782905956,
      "perigee_km": 474.01163734601414,
      "latitude_deg": -3.8071058407115186e-06,
      "longitude_deg": 169.4989245599329,
      "height_km": 476.3196018403151,
      "semi_major_axis_km": 6853.332207818305,
      "eccentricity": 0.0001727,
      "inclination_deg": 53.1621,
      "raan_deg": 335.8809,
      "arg_perigee_deg": 101.0421,
      "mean_anomaly_deg": 259.0774,
      "mean_motion_rev_day": 15.30206652
    },
    {
      "epoch": "2026-04-28T20:12:55.600416Z",
      "apogee_km": 475.9469184154814,
      "perigee_km": 474.3281749675534,
      "latitude_deg": 3.950897878928847e-05,
      "longitude_deg": 171.28779616753945,
      "height_km": 475.91438895999676,
      "semi_major_axis_km": 6853.274546691518,
      "eccentricity": 0.0001181,
      "inclination_deg": 53.1607,
      "raan_deg": 331.3314,
      "arg_perigee_deg": 81.3696,
      "mean_anomaly_deg": 278.7439,
      "mean_motion_rev_day": 15.30225964
    },
    {
      "epoch": "2026-04-29T19:43:44.556672Z",
      "apogee_km": 476.10295190970646,
      "perigee_km": 474.47868951619785,
      "latitude_deg": 7.352512532149344e-06,
      "longitude_deg": 173.06901893582523,
      "height_km": 476.31462374464434,
      "semi_major_axis_km": 6853.427820712952,
      "eccentricity": 0.0001185,
      "inclination_deg": 53.1606,
      "raan_deg": 326.7823,
      "arg_perigee_deg": 98.8926,
      "mean_anomaly_deg": 261.2209,
      "mean_motion_rev_day": 15.3017463
    },
    {
      "epoch": "2026-04-30T12:58:20.902944Z",
      "apogee_km": 476.09235801546856,
      "perigee_km": 474.43918019950434,
      "latitude_deg": -7.524553531729862e-07,
      "longitude_deg": -89.62749259732479,
      "height_km": 476.30156876448746,
      "semi_major_axis_km": 6853.402769107486,
      "eccentricity": 0.00012061,
      "inclination_deg": 53.1588,
      "raan_deg": 323.4454,
      "arg_perigee_deg": 99.5932,
      "mean_anomaly_deg": 260.5205,
      "mean_motion_rev_day": 15.3018302
    }
  ]
}